BEESAT-4                
1 41619U 16040W   21069.39836268  .00002107  00000-0  87109-4 0  9994
2 41619  97.2835 128.2266 0009648 329.3954  30.6720 15.25030914249919
CAS-2T & KS-1Q          
1 41847U 16066G   21069.75248753  .00000140  00000-0  30889-4 0  9999
2 41847  98.6152 128.4147 0365965 154.8198 207.1341 14.38156468227694
NAYIF-1 (EO-88)         
1 42017U 17008BX  21069.47413591  .00002389  00000-0  91095-4 0  9992
2 42017  97.3271 138.8301 0007792  99.3345 260.8776 15.27636553226141
ZHUHAI-1 02 (CAS-4B)    
1 42759U 17034B   21069.81227141  .00000610  00000-0  50161-4 0  9990
2 42759  43.0188   3.3343 0010665 269.7659 188.6248 15.10105641206235
ZHUHAI-1 01 (CAS-4A)    
1 42761U 17034D   21069.80858747  .00000596  00000-0  49220-4 0  9991
2 42761  43.0189   2.4786 0011216 270.0126 187.9808 15.10186769206231
MAX VALIER SAT          
1 42778U 17036P   21069.78040755  .00001320  00000-0  58465-4 0  9997
2 42778  97.2692 121.5731 0012722 157.1686 203.0119 15.23286493206268
RADFXSAT (FOX-1B)       
1 43017U 17073E   21069.52067074  .00000717  00000-0  61437-4 0  9992
2 43017  97.7142 337.4059 0254052 263.1014  94.1239 14.79373921178496
FOX-1D (AO-92)          
1 43137U 18004AC  21069.45560556  .00001622  00000-0  68074-4 0  9995
2 43137  97.4156 144.4834 0008572 189.6923 170.4151 15.24894626175571
DIWATA-2B               
1 43678U 18084H   21069.78296246  .00000537  00000-0  59100-4 0  9995
2 43678  97.9078 194.6483 0010584  25.5136 334.6605 14.91720412128723
ES'HAIL 2               
1 43700U 18090A   21069.51076907  .00000121  00000-0  00000-0 0  9999
2 43700   0.0141 231.5685 0002362 160.3556 346.1343  1.00273125  8374
FOX-1CLIFF (AO-95)      
1 43770U 18099N   21069.47703761  .00000817  00000-0  79328-4 0  9990
2 43770  97.6750 141.8112 0015200  34.4525 325.7678 14.95221525123668
ITASAT 1                
1 43786U 18099AE  21069.48302178  .00000744  00000-0  72195-4 0  9999
2 43786  97.6769 142.4261 0015723  27.8069 332.3989 14.95530380123690
JY1SAT (JO-97)          
1 43803U 18099AX  21069.46250611  .00000517  00000-0  51435-4 0  9993
2 43803  97.6727 142.1712 0015519  27.4374 332.7663 14.95751868123699
UWE-4                   
1 43880U 18111E   21069.71307048  .00000140  00000-0  17274-4 0  9993
2 43880  97.6935 339.1060 0013859  75.5822 284.6937 14.96757476118310
PSAT2 (NO-104)          
1 44354U 19036R   21069.37514175  .00020165  00000-0  27678-3 0  9997
2 44354  28.5316  66.2868 0337543 283.9157  72.4116 15.10314608 93960
BRICSAT2 (NO-103)       
1 44355U 19036S   21069.56608276  .00049095  00000-0  58850-3 0  9994
2 44355  28.5288  34.3622 0289564 335.8536  22.8724 15.22773801 94300
JAISAT-1                
1 44419U 19038F   21069.80619419  .00001442  00000-0  84049-4 0  9999
2 44419  97.5766  34.9649 0019664 294.7077  65.2107 15.13463114 92877
DUCHIFAT-3              
1 44854U 19089C   21069.83832387  .00000679  00000-0  60843-4 0  9999
2 44854  36.9686 323.7709 0007227  51.6521 308.4841 14.99365621 68293
RS-44 & BREEZE-KM R/B   
1 44909U 19096E   21069.56973985 -.00000003  00000-0 -49022-4 0  9997
2 44909  82.5253 178.5066 0216637 324.5437  34.1423 12.79708679 56193
ORBITAL FACTORY 2 (OF-2)
1 45113U 19071C   21069.60375161  .00002625  00000-0  87201-4 0  9996
2 45113  51.6422 156.5310 0011886 297.9596  62.0183 15.34980957 61983
HUSKYSAT-1 (HO-107)     
1 45119U 19071J   21069.48846555  .00002678  00000-0  88495-4 0  9992
2 45119  51.6422 156.5089 0011248 293.9165  66.0639 15.35071661 61964
BY70-2                  
1 45857U 20042B   21069.72897232  .00001328  00000-0  19667-3 0  9991
2 45857  97.9898 146.5004 0012314 165.0588 195.0975 14.76751035 36975
SALSAT                  
1 46495U 20068K   21069.55787851  .00000741  00000-0  58881-4 0  9994
2 46495  97.6865   7.6925 0018056  51.3501 308.9335 15.03376370 24478
BY70-3                  
1 46839U 20079N   21069.85039080  .00003291  00000-0  10566-3 0  9995
2 46839  97.2494 145.6714 0007107 185.5491 314.0687 15.32983057 19094
RADFXSAT-2 (AO-109)     
1 47311U 21002C   21069.85027987  .00001280  00000-0  68532-4 0  9994
2 47311  60.6844 300.2169 0020159 344.0526  15.9923 15.21325298  7877
UVSQ-SAT                
1 47438U 21006AB  21069.37822852  .00001049  00000-0  63134-4 0  9995
2 47438  97.5001 132.3269 0014421  81.9956 278.2910 15.12905807  7077
